OBJECT_NAME,OBJECT_ID,EPOCH,MEAN_MOTION,ECCENTRICITY,INCLINATION,RA_OF_ASC_NODE,ARG_OF_PERICENTER,MEAN_ANOMALY,EPHEMERIS_TYPE,CLASSIFICATION_TYPE,NORAD_CAT_ID,ELEMENT_SET_NO,REV_AT_EPOCH,BSTAR,MEAN_MOTION_DOT,MEAN_MOTION_DDOT
CORVUS BC4,2018-099K,2026-07-04T09:19:37.469568,15.12636422,.0006721,97.4053,227.8657,307.9061,52.1561,0,U,43767,999,41500,.33729059E-3,.5834E-4,0
M2 PATHFINDER,2020-037E,2026-07-04T06:29:10.825152,15.04757926,.00130138,97.8152,16.6938,95.4141,264.8569,0,U,45727,999,32806,.24274235E-3,.3364E-4,0
NETSAT-4,2020-068U,2026-07-04T11:48:23.874336,15.44467151,.00035817,97.8602,195.1298,239.8890,120.2002,0,U,46504,999,31844,.68812274E-3,.31861E-3,0
NETSAT-3,2020-068V,2026-07-04T10:42:59.647680,15.43298067,.00029169,97.8653,193.2756,267.2104,92.8809,0,U,46505,999,31834,.59535548E-3,.26466E-3,0
NETSAT-1,2020-068W,2026-07-04T11:27:27.969120,15.35055802,.00029211,97.8750,187.4340,326.4876,33.6181,0,U,46506,999,31795,.68050326E-3,.23105E-3,0
NETSAT-2,2020-068X,2026-07-04T12:10:21.275616,15.46783339,.00013607,97.8616,195.1057,284.8566,75.2531,0,U,46507,999,31841,.91860957E-3,.46144E-3,0
GREENCUBE (IO-117),2022-080E,2026-07-04T07:18:11.902752,6.42583223,.00089549,70.1435,292.2925,285.9105,74.0568,0,U,53109,999,9316,0,-.3E-7,0
SITRO-AIS 5 (KATYS),2023-091L,2026-07-04T14:26:21.019488,15.29880307,.00117353,97.5046,249.6703,48.3422,311.8821,0,U,57176,999,16700,.8567027E-3,.24814E-3,0
SITRO-AIS 6 (CHIRKIN),2023-091AC,2026-07-04T14:54:23.580864,15.26286786,.0012241,97.5052,248.7159,51.9047,308.3293,0,U,57192,999,16694,.76979039E-3,.19966E-3,0
SITRO-AIS 8 (ANOKHIN),2023-091AD,2026-07-04T03:08:21.463872,15.32607386,.00106462,97.5045,250.8532,46.1829,314.0291,0,U,57193,999,16704,.60599E-3,.1906E-3,0
SITRO-AIS 7 (FARTUSHNIY),2023-091AE,2026-07-04T15:04:07.051296,15.25966494,.00121851,97.5050,248.5384,53.0699,307.1654,0,U,57194,999,16693,.74770962E-3,.19203E-3,0
SITRO-AIS 10 (BURDAEV),2023-091AK,2026-07-04T03:43:26.443488,15.39268228,.00059643,97.5070,256.1095,24.9321,335.2211,0,U,57199,999,16737,.68168557E-3,.26543E-3,0
SITRO-AIS 9 (SHCHUKIN),2023-091AM,2026-07-04T04:29:20.991264,15.38765397,.0006215,97.5068,255.8587,24.8544,335.2999,0,U,57201,999,16736,.6871276E-3,.2632E-3,0
SITRO-AIS 12 (SMIRENNIY),2023-091AQ,2026-07-04T15:06:32.779584,15.39097328,.00056907,97.5079,256.7899,17.2148,342.9289,0,U,57204,999,16745,.98280973E-3,.38147E-3,0
SITRO-AIS 11 (SHEFFER),2023-091AU,2026-07-04T15:18:51.001056,15.39533113,.00055731,97.5076,257.0564,17.1589,342.9844,0,U,57208,999,16747,.10594845E-2,.41739E-3,0
SITRO-AIS 25,2024-039R,2026-07-04T14:16:06.635136,14.93604508,.01421758,95.3897,247.0548,267.0772,91.4176,0,U,59066,999,12732,.40264686E-3,.515E-4,0
SITRO-AIS 26,2024-039S,2026-07-04T14:21:31.502592,14.93396447,.01425341,95.3898,246.9515,267.6859,90.8041,0,U,59067,999,12731,.33470785E-3,.4254E-4,0
SITRO-AIS 27,2024-039T,2026-07-04T15:08:05.313984,14.93816958,.01417934,95.3894,247.2537,266.1092,92.3914,0,U,59068,999,12734,.36853702E-3,.4733E-4,0
SITRO-AIS 28,2024-039U,2026-07-04T14:35:02.524704,14.93852343,.01415449,95.3901,247.2862,266.0416,92.4619,0,U,59071,999,12734,.30089458E-3,.3858E-4,0
GRBBETA,2024-128C,2026-07-04T08:13:11.743392,15.06749901,.00384788,61.9890,156.0715,138.2511,222.1530,0,U,60237,999,10885,.33299077E-3,.4844E-4,0
OOV-CUBE (TUBSAT-30),2024-128F,2026-07-04T08:31:35.761728,15.02839523,.00424682,61.9937,165.7051,137.5285,222.9106,0,U,60240,999,10869,.21118858E-3,.2684E-4,0
ROBUSTA-3A (MEDITERRANEE),2024-128J,2026-07-04T14:19:19.593984,15.11874698,.00393078,61.9860,146.6685,131.4187,229.0298,0,U,60243,999,10905,.8105439E-3,.14007E-3,0
LASARSAT,2024-247Q,2026-07-02T23:48:38.801664,15.47314006,.00065476,44.9721,173.3382,74.4054,285.7559,0,U,62391,999,8576,.62059177E-3,.32189E-3,0
CROCUBE,2024-247T,2026-07-04T07:46:26.256864,15.49468158,.00063327,44.9702,162.8872,91.7427,268.4189,0,U,62394,999,8600,.98588069E-3,.55566E-3,0
FORESAIL-1 PRIME,2025-276DS,2026-07-04T10:56:36.607200,15.18862876,.0003604,97.4190,258.4120,67.9939,292.1678,0,U,66778,999,3302,.31828083E-3,.6569E-4,0
KNACKSAT-2,1998-067XZ,2026-07-04T10:42:58.364640,15.61522674,.00083105,51.6262,207.5644,289.8930,70.1167,0,U,67683,999,2297,.74362841E-3,.65085E-3,0
